STARLINK-31585          
1 59608U 24080H   26068.26676644 -.00007743  00000+0 -27197-3 0  9996
2 59608  43.0022  36.3479 0003717 254.4766 105.5675 15.27590267104520
LIME                    
1 62648U 25009AR  26068.73906781  .00013254  00000+0  47723-3 0  9995
2 62648  97.3985 151.4831 0001635  35.9029 324.2320 15.28703313 63766
